ONEWEB-0665             
1 55825U 23029AF  24254.97358520  .00000238  00000+0  60631-3 0  9998
2 55825  87.8940  57.8362 0001513 102.1318 257.9981 13.14501622 75468
ONEWEB-0666             
1 55826U 23029AG  24254.79789978  .00000100  00000+0  21303-3 0  9995
2 55826  87.9229  42.6493 0001894  83.8339 276.3011 13.20769258 76094
ONEWEB-0667             
1 55827U 23029AH  24254.94311465  .00000030  00000+0  40889-4 0  9998
2 55827  87.9230  42.5535 0001436  99.9354 260.1942 13.20770415 76103
ONEWEB-0669             
1 55828U 23029AJ  24254.93835502  .00000054  00000+0  10074-3 0  9999
2 55828  87.9229  42.5915 0001643  68.8996 291.2313 13.20774392 76106
ONEWEB-0670             
1 55829U 23029AK  24254.49466677 -.00000060  00000+0 -19754-3 0  9997
2 55829  87.8945  57.9403 0001180  94.6273 265.4992 13.14501400 74738
ONEWEB-0671             
1 55830U 23029AL  24254.92404094  .00000136  00000+0  30807-3 0  9996
2 55830  87.9098  73.1312 0001445  92.9261 267.2037 13.19724112 73923
ONEWEB-0672             
1 55831U 23029AM  24254.93363996  .00000103  00000+0  22239-3 0  9997
2 55831  87.9228  42.5768 0001971  87.4445 272.6914 13.20769845 76102
ONEWEB-0673             
1 55832U 23029AN  24254.74871090  .00000181  00000+0  41916-3 0  9995
2 55832  87.9095  73.1326 0001535  94.7588 265.3720 13.19723397 73909
